[{"OBJECT_NAME":"ONEWEB-0342","OBJECT_ID":"2021-083Y","EPOCH":"2025-07-30T09:13:42.411360","MEAN_MOTION":13.20772063,"ECCENTRICITY":0.0001962,"INCLINATION":87.9283,"RA_OF_ASC_NODE":338.5511,"ARG_OF_PERICENTER":94.8576,"MEAN_ANOMALY":265.2781,"EPHEMERIS_TYPE":0,"CLASSIFICATION_TYPE":"U","NORAD_CAT_ID":49208,"ELEMENT_SET_NO":999,"REV_AT_EPOCH":19560,"BSTAR":0.00022881,"MEAN_MOTION_DOT":1.06e-6,"MEAN_MOTION_DDOT":0},{"OBJECT_NAME":"ONEWEB-0343","OBJECT_ID":"2021-083Z","EPOCH":"2025-07-29T21:20:18.152736","MEAN_MOTION":13.18687766,"ECCENTRICITY":0.0001585,"INCLINATION":87.9126,"RA_OF_ASC_NODE":39.4708,"ARG_OF_PERICENTER":70.1106,"MEAN_ANOMALY":290.0196,"EPHEMERIS_TYPE":0,"CLASSIFICATION_TYPE":"U","NORAD_CAT_ID":49209,"ELEMENT_SET_NO":999,"REV_AT_EPOCH":18885,"BSTAR":-2.1431e-5,"MEAN_MOTION_DOT":4.0e-8,"MEAN_MOTION_DDOT":0},{"OBJECT_NAME":"ONEWEB-0344","OBJECT_ID":"2021-083AA","EPOCH":"2025-07-29T21:19:36.892416","MEAN_MOTION":13.1346927,"ECCENTRICITY":0.000135,"INCLINATION":87.8966,"RA_OF_ASC_NODE":24.3069,"ARG_OF_PERICENTER":87.5617,"MEAN_ANOMALY":272.5667,"EPHEMERIS_TYPE":0,"CLASSIFICATION_TYPE":"U","NORAD_CAT_ID":49210,"ELEMENT_SET_NO":999,"REV_AT_EPOCH":18858,"BSTAR":-0.00081645,"MEAN_MOTION_DOT":-2.85e-6,"MEAN_MOTION_DDOT":0},{"OBJECT_NAME":"ONEWEB-0345","OBJECT_ID":"2021-083AB","EPOCH":"2025-07-30T13:34:41.604384","MEAN_MOTION":13.13468509,"ECCENTRICITY":0.0001295,"INCLINATION":87.8965,"RA_OF_ASC_NODE":24.1239,"ARG_OF_PERICENTER":87.7777,"MEAN_ANOMALY":272.3501,"EPHEMERIS_TYPE":0,"CLASSIFICATION_TYPE":"U","NORAD_CAT_ID":49211,"ELEMENT_SET_NO":999,"REV_AT_EPOCH":18998,"BSTAR":0.00022948,"MEAN_MOTION_DOT":9.7e-7,"MEAN_MOTION_DDOT":0},{"OBJECT_NAME":"ONEWEB-0346","OBJECT_ID":"2021-083AC","EPOCH":"2025-07-30T13:56:43.065600","MEAN_MOTION":13.18686155,"ECCENTRICITY":0.0001873,"INCLINATION":87.9127,"RA_OF_ASC_NODE":39.355,"ARG_OF_PERICENTER":109.2141,"MEAN_ANOMALY":250.9193,"EPHEMERIS_TYPE":0,"CLASSIFICATION_TYPE":"U","NORAD_CAT_ID":49212,"ELEMENT_SET_NO":999,"REV_AT_EPOCH":18888,"BSTAR":-6.054e-6,"MEAN_MOTION_DOT":1.1e-7,"MEAN_MOTION_DDOT":0},{"OBJECT_NAME":"ONEWEB-0348","OBJECT_ID":"2021-083AD","EPOCH":"2025-07-30T01:43:42.139200","MEAN_MOTION":13.20772846,"ECCENTRICITY":0.0001461,"INCLINATION":87.9287,"RA_OF_ASC_NODE":338.6236,"ARG_OF_PERICENTER":114.3008,"MEAN_ANOMALY":245.8278,"EPHEMERIS_TYPE":0,"CLASSIFICATION_TYPE":"U","NORAD_CAT_ID":49213,"ELEMENT_SET_NO":999,"REV_AT_EPOCH":19559,"BSTAR":5.4093e-5,"MEAN_MOTION_DOT":3.5e-7,"MEAN_MOTION_DDOT":0},{"OBJECT_NAME":"ONEWEB-0350","OBJECT_ID":"2021-083AE","EPOCH":"2025-07-29T21:20:49.427808","MEAN_MOTION":13.1346928,"ECCENTRICITY":0.0001459,"INCLINATION":87.8966,"RA_OF_ASC_NODE":24.2498,"ARG_OF_PERICENTER":90.639,"MEAN_ANOMALY":269.4906,"EPHEMERIS_TYPE":0,"CLASSIFICATION_TYPE":"U","NORAD_CAT_ID":49214,"ELEMENT_SET_NO":999,"REV_AT_EPOCH":18992,"BSTAR":-0.0012794,"MEAN_MOTION_DOT":-4.54e-6,"MEAN_MOTION_DDOT":0},{"OBJECT_NAME":"ONEWEB-0351","OBJECT_ID":"2021-083AF","EPOCH":"2025-07-30T14:17:59.828640","MEAN_MOTION":13.20800758,"ECCENTRICITY":0.0002222,"INCLINATION":87.9294,"RA_OF_ASC_NODE":338.5025,"ARG_OF_PERICENTER":74.6329,"MEAN_ANOMALY":285.505,"EPHEMERIS_TYPE":0,"CLASSIFICATION_TYPE":"U","NORAD_CAT_ID":49215,"ELEMENT_SET_NO":999,"REV_AT_EPOCH":19563,"BSTAR":0.0081123,"MEAN_MOTION_DOT":3.314e-5,"MEAN_MOTION_DDOT":0},{"OBJECT_NAME":"ONEWEB-0352","OBJECT_ID":"2021-083AG","EPOCH":"2025-07-29T22:42:30.168864","MEAN_MOTION":13.13468817,"ECCENTRICITY":0.0001939,"INCLINATION":87.8966,"RA_OF_ASC_NODE":24.2803,"ARG_OF_PERICENTER":78.0229,"MEAN_ANOMALY":282.1117,"EPHEMERIS_TYPE":0,"CLASSIFICATION_TYPE":"U","NORAD_CAT_ID":49216,"ELEMENT_SET_NO":999,"REV_AT_EPOCH":18872,"BSTAR":0.00036728,"MEAN_MOTION_DOT":1.47e-6,"MEAN_MOTION_DDOT":0},{"OBJECT_NAME":"ONEWEB-0354","OBJECT_ID":"2021-083AH","EPOCH":"2025-07-29T20:43:42.154176","MEAN_MOTION":13.20771025,"ECCENTRICITY":0.0001575,"INCLINATION":87.9294,"RA_OF_ASC_NODE":338.6466,"ARG_OF_PERICENTER":100.7573,"MEAN_ANOMALY":259.3738,"EPHEMERIS_TYPE":0,"CLASSIFICATION_TYPE":"U","NORAD_CAT_ID":49217,"ELEMENT_SET_NO":999,"REV_AT_EPOCH":19426,"BSTAR":-1.5466e-5,"MEAN_MOTION_DOT":7.0e-8,"MEAN_MOTION_DDOT":0},{"OBJECT_NAME":"ONEWEB-0355","OBJECT_ID":"2021-083AJ","EPOCH":"2025-07-30T04:53:13.070400","MEAN_MOTION":13.13471599,"ECCENTRICITY":0.0001661,"INCLINATION":87.897,"RA_OF_ASC_NODE":24.2278,"ARG_OF_PERICENTER":84.934,"MEAN_ANOMALY":275.1979,"EPHEMERIS_TYPE":0,"CLASSIFICATION_TYPE":"U","NORAD_CAT_ID":49218,"ELEMENT_SET_NO":999,"REV_AT_EPOCH":18993,"BSTAR":-0.00089201,"MEAN_MOTION_DOT":-3.13e-6,"MEAN_MOTION_DDOT":0},{"OBJECT_NAME":"ONEWEB-0357","OBJECT_ID":"2021-083AK","EPOCH":"2025-07-30T09:22:47.474400","MEAN_MOTION":13.20770945,"ECCENTRICITY":0.0001809,"INCLINATION":87.9284,"RA_OF_ASC_NODE":338.5462,"ARG_OF_PERICENTER":92.8679,"MEAN_ANOMALY":267.2661,"EPHEMERIS_TYPE":0,"CLASSIFICATION_TYPE":"U","NORAD_CAT_ID":49219,"ELEMENT_SET_NO":999,"REV_AT_EPOCH":19563,"BSTAR":0.00021214,"MEAN_MOTION_DOT":9.9e-7,"MEAN_MOTION_DDOT":0},{"OBJECT_NAME":"ONEWEB-0332","OBJECT_ID":"2021-090A","EPOCH":"2025-07-29T22:27:44.482464","MEAN_MOTION":13.14503732,"ECCENTRICITY":0.000203,"INCLINATION":87.9068,"RA_OF_ASC_NODE":353.8426,"ARG_OF_PERICENTER":92.0718,"MEAN_ANOMALY":268.0644,"EPHEMERIS_TYPE":0,"CLASSIFICATION_TYPE":"U","NORAD_CAT_ID":49279,"ELEMENT_SET_NO":999,"REV_AT_EPOCH":18524,"BSTAR":0.00037,"MEAN_MOTION_DOT":1.5e-6,"MEAN_MOTION_DDOT":0},{"OBJECT_NAME":"ONEWEB-0347","OBJECT_ID":"2021-090B","EPOCH":"2025-07-29T20:25:31.207296","MEAN_MOTION":13.2077094,"ECCENTRICITY":0.0002258,"INCLINATION":87.929,"RA_OF_ASC_NODE":338.6634,"ARG_OF_PERICENTER":98.4488,"MEAN_ANOMALY":261.6901,"EPHEMERIS_TYPE":0,"CLASSIFICATION_TYPE":"U","NORAD_CAT_ID":49280,"ELEMENT_SET_NO":999,"REV_AT_EPOCH":18849,"BSTAR":0.0001015,"MEAN_MOTION_DOT":5.4e-7,"MEAN_MOTION_DDOT":0},{"OBJECT_NAME":"ONEWEB-0349","OBJECT_ID":"2021-090C","EPOCH":"2025-07-30T09:54:36.821952","MEAN_MOTION":13.20770608,"ECCENTRICITY":0.0001832,"INCLINATION":87.9282,"RA_OF_ASC_NODE":338.5566,"ARG_OF_PERICENTER":95.3507,"MEAN_ANOMALY":264.7835,"EPHEMERIS_TYPE":0,"CLASSIFICATION_TYPE":"U","NORAD_CAT_ID":49281,"ELEMENT_SET_NO":999,"REV_AT_EPOCH":18864,"BSTAR":4.8338e-5,"MEAN_MOTION_DOT":3.3e-7,"MEAN_MOTION_DDOT":0},{"OBJECT_NAME":"ONEWEB-0353","OBJECT_ID":"2021-090D","EPOCH":"2025-07-29T20:26:42.684288","MEAN_MOTION":13.14503838,"ECCENTRICITY":0.0002068,"INCLINATION":87.9068,"RA_OF_ASC_NODE":353.8462,"ARG_OF_PERICENTER":94.3661,"MEAN_ANOMALY":265.7705,"EPHEMERIS_TYPE":0,"CLASSIFICATION_TYPE":"U","NORAD_CAT_ID":49282,"ELEMENT_SET_NO":999,"REV_AT_EPOCH":18523,"BSTAR":0.00055381,"MEAN_MOTION_DOT":2.18e-6,"MEAN_MOTION_DDOT":0},{"OBJECT_NAME":"ONEWEB-0356","OBJECT_ID":"2021-090E","EPOCH":"2025-07-30T09:52:19.911648","MEAN_MOTION":13.20771069,"ECCENTRICITY":0.0002359,"INCLINATION":87.9286,"RA_OF_ASC_NODE":338.5477,"ARG_OF_PERICENTER":119.3395,"MEAN_ANOMALY":240.7974,"EPHEMERIS_TYPE":0,"CLASSIFICATION_TYPE":"U","NORAD_CAT_ID":49283,"ELEMENT_SET_NO":999,"REV_AT_EPOCH":18864,"BSTAR":-9.3188e-5,"MEAN_MOTION_DOT":-2.5e-7,"MEAN_MOTION_DDOT":0}]
